[
  {
    "OBJECT_NAME": "TIANMU-1 11",
    "OBJECT_ID": "2023-205A",
    "EPOCH": "2025-05-17T21:11:54.460608",
    "MEAN_MOTION": 15.2186335,
    "ECCENTRICITY": 0.0008564,
    "INCLINATION": 97.3735,
    "RA_OF_ASC_NODE": 161.4022,
    "ARG_OF_PERICENTER": 325.9619,
    "MEAN_ANOMALY": 34.1067,
    "EPHEMERIS_TYPE": 0,
    "CLASSIFICATION_TYPE": "U",
    "NORAD_CAT_ID": 58645,
    "ELEMENT_SET_NO": 999,
    "REV_AT_EPOCH": 7730,
    "BSTAR": 0.00031744,
    "MEAN_MOTION_DOT": 7.158e-05,
    "MEAN_MOTION_DDOT": 0
  },
  {
    "OBJECT_NAME": "TIANMU-1 12",
    "OBJECT_ID": "2023-205B",
    "EPOCH": "2025-05-17T19:59:44.477088",
    "MEAN_MOTION": 15.21790271,
    "ECCENTRICITY": 0.0006335,
    "INCLINATION": 97.3722,
    "RA_OF_ASC_NODE": 161.2207,
    "ARG_OF_PERICENTER": 314.4495,
    "MEAN_ANOMALY": 45.6223,
    "EPHEMERIS_TYPE": 0,
    "CLASSIFICATION_TYPE": "U",
    "NORAD_CAT_ID": 58646,
    "ELEMENT_SET_NO": 999,
    "REV_AT_EPOCH": 7728,
    "BSTAR": 0.00030546,
    "MEAN_MOTION_DOT": 6.867e-05,
    "MEAN_MOTION_DDOT": 0
  },
  {
    "OBJECT_NAME": "TIANMU-1 13",
    "OBJECT_ID": "2023-205C",
    "EPOCH": "2025-05-17T20:46:18.127776",
    "MEAN_MOTION": 15.21764377,
    "ECCENTRICITY": 0.0006127,
    "INCLINATION": 97.375,
    "RA_OF_ASC_NODE": 161.3771,
    "ARG_OF_PERICENTER": 286.866,
    "MEAN_ANOMALY": 73.1904,
    "EPHEMERIS_TYPE": 0,
    "CLASSIFICATION_TYPE": "U",
    "NORAD_CAT_ID": 58647,
    "ELEMENT_SET_NO": 999,
    "REV_AT_EPOCH": 7728,
    "BSTAR": 0.00032469,
    "MEAN_MOTION_DOT": 7.298e-05,
    "MEAN_MOTION_DDOT": 0
  },
  {
    "OBJECT_NAME": "TIANMU-1 14",
    "OBJECT_ID": "2023-205D",
    "EPOCH": "2025-05-17T20:22:41.059776",
    "MEAN_MOTION": 15.21786824,
    "ECCENTRICITY": 0.000722,
    "INCLINATION": 97.3679,
    "RA_OF_ASC_NODE": 160.9027,
    "ARG_OF_PERICENTER": 293.375,
    "MEAN_ANOMALY": 66.6726,
    "EPHEMERIS_TYPE": 0,
    "CLASSIFICATION_TYPE": "U",
    "NORAD_CAT_ID": 58648,
    "ELEMENT_SET_NO": 999,
    "REV_AT_EPOCH": 7728,
    "BSTAR": 0.00030047,
    "MEAN_MOTION_DOT": 6.754e-05,
    "MEAN_MOTION_DDOT": 0
  },
  {
    "OBJECT_NAME": "TIANMU-1 19",
    "OBJECT_ID": "2023-208A",
    "EPOCH": "2025-05-17T19:46:41.655936",
    "MEAN_MOTION": 15.2381339,
    "ECCENTRICITY": 0.0004229,
    "INCLINATION": 97.4255,
    "RA_OF_ASC_NODE": 250.2194,
    "ARG_OF_PERICENTER": 270.1442,
    "MEAN_ANOMALY": 89.931,
    "EPHEMERIS_TYPE": 0,
    "CLASSIFICATION_TYPE": "U",
    "NORAD_CAT_ID": 58660,
    "ELEMENT_SET_NO": 999,
    "REV_AT_EPOCH": 7697,
    "BSTAR": 0.00038115,
    "MEAN_MOTION_DOT": 9.115e-05,
    "MEAN_MOTION_DDOT": 0
  },
  {
    "OBJECT_NAME": "TIANMU-1 20",
    "OBJECT_ID": "2023-208B",
    "EPOCH": "2025-05-17T20:14:46.170816",
    "MEAN_MOTION": 15.25016156,
    "ECCENTRICITY": 0.0006679,
    "INCLINATION": 97.4191,
    "RA_OF_ASC_NODE": 250.4823,
    "ARG_OF_PERICENTER": 284.4264,
    "MEAN_ANOMALY": 75.6232,
    "EPHEMERIS_TYPE": 0,
    "CLASSIFICATION_TYPE": "U",
    "NORAD_CAT_ID": 58661,
    "ELEMENT_SET_NO": 999,
    "REV_AT_EPOCH": 7702,
    "BSTAR": 0.00038663,
    "MEAN_MOTION_DOT": 9.59e-05,
    "MEAN_MOTION_DDOT": 0
  },
  {
    "OBJECT_NAME": "TIANMU-1 21",
    "OBJECT_ID": "2023-208C",
    "EPOCH": "2025-05-17T19:21:25.675488",
    "MEAN_MOTION": 15.26893189,
    "ECCENTRICITY": 0.0006289,
    "INCLINATION": 97.4234,
    "RA_OF_ASC_NODE": 251.5513,
    "ARG_OF_PERICENTER": 281.509,
    "MEAN_ANOMALY": 78.5443,
    "EPHEMERIS_TYPE": 0,
    "CLASSIFICATION_TYPE": "U",
    "NORAD_CAT_ID": 58662,
    "ELEMENT_SET_NO": 999,
    "REV_AT_EPOCH": 7707,
    "BSTAR": 0.00041235,
    "MEAN_MOTION_DOT": 0.00010829,
    "MEAN_MOTION_DDOT": 0
  },
  {
    "OBJECT_NAME": "TIANMU-1 22",
    "OBJECT_ID": "2023-208D",
    "EPOCH": "2025-05-17T19:27:23.508864",
    "MEAN_MOTION": 15.23818483,
    "ECCENTRICITY": 0.000281,
    "INCLINATION": 97.425,
    "RA_OF_ASC_NODE": 250.3109,
    "ARG_OF_PERICENTER": 306.3695,
    "MEAN_ANOMALY": 53.7282,
    "EPHEMERIS_TYPE": 0,
    "CLASSIFICATION_TYPE": "U",
    "NORAD_CAT_ID": 58663,
    "ELEMENT_SET_NO": 999,
    "REV_AT_EPOCH": 7698,
    "BSTAR": 0.00036689,
    "MEAN_MOTION_DOT": 8.771e-05,
    "MEAN_MOTION_DDOT": 0
  },
  {
    "OBJECT_NAME": "TIANMU-1 15",
    "OBJECT_ID": "2024-004A",
    "EPOCH": "2025-05-17T20:16:50.864160",
    "MEAN_MOTION": 15.21669881,
    "ECCENTRICITY": 0.0005427,
    "INCLINATION": 97.4658,
    "RA_OF_ASC_NODE": 320.5651,
    "ARG_OF_PERICENTER": 311.6912,
    "MEAN_ANOMALY": 48.3859,
    "EPHEMERIS_TYPE": 0,
    "CLASSIFICATION_TYPE": "U",
    "NORAD_CAT_ID": 58700,
    "ELEMENT_SET_NO": 999,
    "REV_AT_EPOCH": 7555,
    "BSTAR": 0.00033392,
    "MEAN_MOTION_DOT": 7.485e-05,
    "MEAN_MOTION_DDOT": 0
  },
  {
    "OBJECT_NAME": "TIANMU-1 16",
    "OBJECT_ID": "2024-004B",
    "EPOCH": "2025-05-17T19:55:22.787904",
    "MEAN_MOTION": 15.21708374,
    "ECCENTRICITY": 0.000586,
    "INCLINATION": 97.4592,
    "RA_OF_ASC_NODE": 320.1152,
    "ARG_OF_PERICENTER": 317.9211,
    "MEAN_ANOMALY": 42.1574,
    "EPHEMERIS_TYPE": 0,
    "CLASSIFICATION_TYPE": "U",
    "NORAD_CAT_ID": 58701,
    "ELEMENT_SET_NO": 999,
    "REV_AT_EPOCH": 7555,
    "BSTAR": 0.00032055,
    "MEAN_MOTION_DOT": 7.191e-05,
    "MEAN_MOTION_DDOT": 0
  },
  {
    "OBJECT_NAME": "TIANMU-1 17",
    "OBJECT_ID": "2024-004C",
    "EPOCH": "2025-05-17T19:39:24.110784",
    "MEAN_MOTION": 15.21868911,
    "ECCENTRICITY": 0.0004544,
    "INCLINATION": 97.463,
    "RA_OF_ASC_NODE": 320.4047,
    "ARG_OF_PERICENTER": 322.1084,
    "MEAN_ANOMALY": 37.9832,
    "EPHEMERIS_TYPE": 0,
    "CLASSIFICATION_TYPE": "U",
    "NORAD_CAT_ID": 58702,
    "ELEMENT_SET_NO": 999,
    "REV_AT_EPOCH": 7554,
    "BSTAR": 0.0003108,
    "MEAN_MOTION_DOT": 7.002e-05,
    "MEAN_MOTION_DDOT": 0
  },
  {
    "OBJECT_NAME": "TIANMU-1 18",
    "OBJECT_ID": "2024-004D",
    "EPOCH": "2025-05-17T20:46:29.365824",
    "MEAN_MOTION": 15.21784365,
    "ECCENTRICITY": 0.0004169,
    "INCLINATION": 97.4648,
    "RA_OF_ASC_NODE": 320.603,
    "ARG_OF_PERICENTER": 307.1657,
    "MEAN_ANOMALY": 52.9198,
    "EPHEMERIS_TYPE": 0,
    "CLASSIFICATION_TYPE": "U",
    "NORAD_CAT_ID": 58703,
    "ELEMENT_SET_NO": 999,
    "REV_AT_EPOCH": 7555,
    "BSTAR": 0.00032122,
    "MEAN_MOTION_DOT": 7.221e-05,
    "MEAN_MOTION_DDOT": 0
  },
  {
    "OBJECT_NAME": "INSAT-3DS",
    "OBJECT_ID": "2024-033A",
    "EPOCH": "2025-05-17T19:44:19.014720",
    "MEAN_MOTION": 1.00270594,
    "ECCENTRICITY": 0.000145,
    "INCLINATION": 0.0473,
    "RA_OF_ASC_NODE": 264.6088,
    "ARG_OF_PERICENTER": 158.9141,
    "MEAN_ANOMALY": 190.4004,
    "EPHEMERIS_TYPE": 0,
    "CLASSIFICATION_TYPE": "U",
    "NORAD_CAT_ID": 58990,
    "ELEMENT_SET_NO": 999,
    "REV_AT_EPOCH": 485,
    "BSTAR": 0,
    "MEAN_MOTION_DOT": -1.44e-06,
    "MEAN_MOTION_DDOT": 0
  },
  {
    "OBJECT_NAME": "METEOR-M2 4",
    "OBJECT_ID": "2024-039A",
    "EPOCH": "2025-05-17T20:27:24.299712",
    "MEAN_MOTION": 14.22364771,
    "ECCENTRICITY": 0.0006084,
    "INCLINATION": 98.648,
    "RA_OF_ASC_NODE": 98.4139,
    "ARG_OF_PERICENTER": 228.8919,
    "MEAN_ANOMALY": 131.1734,
    "EPHEMERIS_TYPE": 0,
    "CLASSIFICATION_TYPE": "U",
    "NORAD_CAT_ID": 59051,
    "ELEMENT_SET_NO": 999,
    "REV_AT_EPOCH": 6306,
    "BSTAR": 4.0355e-05,
    "MEAN_MOTION_DOT": 4.6e-07,
    "MEAN_MOTION_DDOT": 0
  },
  {
    "OBJECT_NAME": "GOES 19",
    "OBJECT_ID": "2024-119A",
    "EPOCH": "2025-05-17T10:33:38.600640",
    "MEAN_MOTION": 1.00268933,
    "ECCENTRICITY": 6.42e-05,
    "INCLINATION": 0.0544,
    "RA_OF_ASC_NODE": 105.1004,
    "ARG_OF_PERICENTER": 3.0344,
    "MEAN_ANOMALY": 210.4302,
    "EPHEMERIS_TYPE": 0,
    "CLASSIFICATION_TYPE": "U",
    "NORAD_CAT_ID": 60133,
    "ELEMENT_SET_NO": 999,
    "REV_AT_EPOCH": 299,
    "BSTAR": 0,
    "MEAN_MOTION_DOT": -2.36e-06,
    "MEAN_MOTION_DDOT": 0
  }
]